{"type": "FeatureCollection", "features": [ {"type": "Feature", "properties": {"norad_id": 30208, "name": "FENGYUN 1C DEB", "group": "fengyun-1c-debris", "lat": 74.11513113472091, "lon": -32.159508757943684, "alt_km": 828.0694600400257, "timestamp": "2025-12-25T03:55:56.632574+00:00", "meta": {"OBJECT_NAME": "FENGYUN 1C DEB", "OBJECT_ID": "1999-025VR", "EPOCH": "2025-12-22T13:45:53.428320", "MEAN_MOTION": 14.23547056, "ECCENTRICITY": 0.00330486, "INCLINATION": 98.5618, "RA_OF_ASC_NODE": 357.2842, "ARG_OF_PERICENTER": 240.7378, "MEAN_ANOMALY": 248.7585, "EPHEMERIS_TYPE": 0, "CLASSIFICATION_TYPE": "U", "NORAD_CAT_ID": 30208, "ELEMENT_SET_NO": 999, "REV_AT_EPOCH": 97977, "BSTAR": 0.00041726033, "MEAN_MOTION_DOT": 9.12e-06, "MEAN_MOTION_DDOT": 0}, "tle": {"line1": "1 30208U 99025VR  25356.57353505  .00000912  00000+0  41726-3 0  9996", "line2": "2 30208  98.5618 357.2842 0033048 240.7378 248.7585 14.23547056979777"}}, "geometry": {"type": "Point", "coordinates": [-32.159508757943684, 74.11513113472091]}}, {"type": "Feature", "properties": {"norad_id": 30209, "name": "FENGYUN 1C DEB", "group": "fengyun-1c-debris", "lat": -54.01742751057834, "lon": 7.855253660845262, "alt_km": 862.1944834267942, "timestamp": "2025-12-25T03:55:56.632585+00:00", "meta": {"OBJECT_NAME": "FENGYUN 1C DEB", "OBJECT_ID": "1999-025VS", "EPOCH": "2025-12-23T20:27:51.157152", "MEAN_MOTION": 14.12915118, "ECCENTRICITY": 0.00388875, "INCLINATION": 98.7144, "RA_OF_ASC_NODE": 354.3843, "ARG_OF_PERICENTER": 206.6937, "MEAN_ANOMALY": 272.4406, "EPHEMERIS_TYPE": 0, "CLASSIFICATION_TYPE": "U", "NORAD_CAT_ID": 30209, "ELEMENT_SET_NO": 999, "REV_AT_EPOCH": 97363, "BSTAR": 0.00024448626, "MEAN_MOTION_DOT": 4.15e-06, "MEAN_MOTION_DDOT": 0}, "tle": {"line1": "1 30209U 99025VS  25357.85267543  .00000415  00000+0  24449-3 0  9996", "line2": "2 30209  98.7144 354.3843 0038887 206.6937 272.4406 14.12915118973632"}}, "geometry": {"type": "Point", "coordinates": [7.855253660845262, -54.01742751057834]}}, {"type": "Feature", "properties": {"norad_id": 30210, "name": "FENGYUN 1C DEB", "group": "fengyun-1c-debris", "lat": 72.17032517566506, "lon": -100.64647349160057, "alt_km": 817.1633416499644, "timestamp": "2025-12-25T03:55:56.632595+00:00", "meta": {"OBJECT_NAME": "FENGYUN 1C DEB", "OBJECT_ID": "1999-025VT", "EPOCH": "2025-12-24T17:44:30.496704", "MEAN_MOTION": 14.0829263, "ECCENTRICITY": 0.0056757, "INCLINATION": 99.1891, "RA_OF_ASC_NODE": 48.7044, "ARG_OF_PERICENTER": 103.5027, "MEAN_ANOMALY": 10.2588, "EPHEMERIS_TYPE": 0, "CLASSIFICATION_TYPE": "U", "NORAD_CAT_ID": 30210, "ELEMENT_SET_NO": 999, "REV_AT_EPOCH": 96926, "BSTAR": 0.00066987, "MEAN_MOTION_DOT": 1.116e-05, "MEAN_MOTION_DDOT": 0}, "tle": {"line1": "1 30210U 99025VT  25358.73924186  .00001116  00000+0  66987-3 0  9991", "line2": "2 30210  99.1891  48.7044 0056757 103.5027  10.2588 14.08292630969261"}}, "geometry": {"type": "Point", "coordinates": [-100.64647349160057, 72.17032517566506]}}, {"type": "Feature", "properties": {"norad_id": 30212, "name": "FENGYUN 1C DEB", "group": "fengyun-1c-debris", "lat": -33.57303815488282, "lon": 38.549438568678, "alt_km": 840.6163961305083, "timestamp": "2025-12-25T03:55:56.632606+00:00", "meta": {"OBJECT_NAME": "FENGYUN 1C DEB", "OBJECT_ID": "1999-025VV", "EPOCH": "2025-12-24T14:52:41.799936", "MEAN_MOTION": 13.97064467, "ECCENTRICITY": 0.0096981, "INCLINATION": 99.4564, "RA_OF_ASC_NODE": 224.3412, "ARG_OF_PERICENTER": 204.7802, "MEAN_ANOMALY": 154.8685, "EPHEMERIS_TYPE": 0, "CLASSIFICATION_TYPE": "U", "NORAD_CAT_ID": 30212, "ELEMENT_SET_NO": 999, "REV_AT_EPOCH": 96391, "BSTAR": 0.00040861, "MEAN_MOTION_DOT": 5.46e-06, "MEAN_MOTION_DDOT": 0}, "tle": {"line1": "1 30212U 99025VV  25358.61992824  .00000546  00000+0  40861-3 0  9993", "line2": "2 30212  99.4564 224.3412 0096981 204.7802 154.8685 13.97064467963913"}}, "geometry": {"type": "Point", "coordinates": [38.549438568678, -33.57303815488282]}}, {"type": "Feature", "properties": {"norad_id": 30213, "name": "FENGYUN 1C DEB", "group": "fengyun-1c-debris", "lat": -33.64636686812496, "lon": -110.32876578369552, "alt_km": 807.5450663395832, "timestamp": "2025-12-25T03:55:56.632616+00:00", "meta": {"OBJECT_NAME": "FENGYUN 1C DEB", "OBJECT_ID": "1999-025VW", "EPOCH": "2025-12-24T15:46:25.349376", "MEAN_MOTION": 14.11641063, "ECCENTRICITY": 0.0072548, "INCLINATION": 99.122, "RA_OF_ASC_NODE": 75.2951, "ARG_OF_PERICENTER": 210.8695, "MEAN_ANOMALY": 309.9615, "EPHEMERIS_TYPE": 0, "CLASSIFICATION_TYPE": "U", "NORAD_CAT_ID": 30213, "ELEMENT_SET_NO": 999, "REV_AT_EPOCH": 96683, "BSTAR": 0.0015438, "MEAN_MOTION_DOT": 2.832e-05, "MEAN_MOTION_DDOT": 0}, "tle": {"line1": "1 30213U 99025VW  25358.65723784  .00002832  00000+0  15438-2 0  9996", "line2": "2 30213  99.1220  75.2951 0072548 210.8695 309.9615 14.11641063966832"}}, "geometry": {"type": "Point", "coordinates": [-110.32876578369552, -33.64636686812496]}}, {"type": "Feature", "properties": {"norad_id": 30214, "name": "FENGYUN 1C DEB", "group": "fengyun-1c-debris", "lat": 5.97434176151409, "lon": -106.71917780628027, "alt_km": 804.5911953227906, "timestamp": "2025-12-25T03:55:56.632626+00:00", "meta": {"OBJECT_NAME": "FENGYUN 1C DEB", "OBJECT_ID": "1999-025VX", "EPOCH": "2025-12-24T03:46:08.936832", "MEAN_MOTION": 14.31011937, "ECCENTRICITY": 0.00202183, "INCLINATION": 98.7231, "RA_OF_ASC_NODE": 71.3499, "ARG_OF_PERICENTER": 9.1815, "MEAN_ANOMALY": 20.8591, "EPHEMERIS_TYPE": 0, "CLASSIFICATION_TYPE": "U", "NORAD_CAT_ID": 30214, "ELEMENT_SET_NO": 999, "REV_AT_EPOCH": 97730, "BSTAR": 0.0016471646, "MEAN_MOTION_DOT": 4.301e-05, "MEAN_MOTION_DDOT": 0}, "tle": {"line1": "1 30214U 99025VX  25358.15704788  .00004301  00000+0  16472-2 0  9997", "line2": "2 30214  98.7231  71.3499 0020218   9.1815  20.8591 14.31011937977303"}}, "geometry": {"type": "Point", "coordinates": [-106.71917780628027, 5.97434176151409]}}, {"type": "Feature", "properties": {"norad_id": 30217, "name": "FENGYUN 1C DEB", "group": "fengyun-1c-debris", "lat": 49.608995853582655, "lon": -27.59347474792805, "alt_km": 705.943007186931, "timestamp": "2025-12-25T03:55:56.632636+00:00", "meta": {"OBJECT_NAME": "FENGYUN 1C DEB", "OBJECT_ID": "1999-025WA", "EPOCH": "2025-12-23T21:21:56.943360", "MEAN_MOTION": 14.24848797, "ECCENTRICITY": 0.0140693, "INCLINATION": 98.4326, "RA_OF_ASC_NODE": 341.224, "ARG_OF_PERICENTER": 67.4213, "MEAN_ANOMALY": 294.1784, "EPHEMERIS_TYPE": 0, "CLASSIFICATION_TYPE": "U", "NORAD_CAT_ID": 30217, "ELEMENT_SET_NO": 999, "REV_AT_EPOCH": 98232, "BSTAR": 0.00026361, "MEAN_MOTION_DOT": 6.41e-06, "MEAN_MOTION_DDOT": 0}, "tle": {"line1": "1 30217U 99025WA  25357.89024240  .00000641  00000+0  26361-3 0  9990", "line2": "2 30217  98.4326 341.2240 0140693  67.4213 294.1784 14.24848797982322"}}, "geometry": {"type": "Point", "coordinates": [-27.59347474792805, 49.608995853582655]}}, {"type": "Feature", "properties": {"norad_id": 30218, "name": "FENGYUN 1C DEB", "group": "fengyun-1c-debris", "lat": 78.7868402457994, "lon": -38.12947507473789, "alt_km": 814.4989664004925, "timestamp": "2025-12-25T03:55:56.632646+00:00", "meta": {"OBJECT_NAME": "FENGYUN 1C DEB", "OBJECT_ID": "1999-025WB", "EPOCH": "2025-12-24T18:06:21.691008", "MEAN_MOTION": 14.28950681, "ECCENTRICITY": 0.0071271, "INCLINATION": 98.9861, "RA_OF_ASC_NODE": 88.4907, "ARG_OF_PERICENTER": 219.6578, "MEAN_ANOMALY": 292.7259, "EPHEMERIS_TYPE": 0, "CLASSIFICATION_TYPE": "U", "NORAD_CAT_ID": 30218, "ELEMENT_SET_NO": 999, "REV_AT_EPOCH": 97280, "BSTAR": 0.0026284, "MEAN_MOTION_DOT": 6.786e-05, "MEAN_MOTION_DDOT": 0}, "tle": {"line1": "1 30218U 99025WB  25358.75441772  .00006786  00000+0  26284-2 0  9999", "line2": "2 30218  98.9861  88.4907 0071271 219.6578 292.7259 14.28950681972805"}}, "geometry": {"type": "Point", "coordinates": [-38.12947507473789, 78.7868402457994]}}, {"type": "Feature", "properties": {"norad_id": 30221, "name": "FENGYUN 1C DEB", "group": "fengyun-1c-debris", "lat": 45.915747267339704, "lon": 78.15072389718223, "alt_km": 658.3901000125161, "timestamp": "2025-12-25T03:55:56.632657+00:00", "meta": {"OBJECT_NAME": "FENGYUN 1C DEB", "OBJECT_ID": "1999-025WE", "EPOCH": "2025-12-24T19:25:07.364928", "MEAN_MOTION": 14.45832645, "ECCENTRICITY": 0.0144812, "INCLINATION": 98.9555, "RA_OF_ASC_NODE": 87.1466, "ARG_OF_PERICENTER": 5.4498, "MEAN_ANOMALY": 354.8227, "EPHEMERIS_TYPE": 0, "CLASSIFICATION_TYPE": "U", "NORAD_CAT_ID": 30221, "ELEMENT_SET_NO": 999, "REV_AT_EPOCH": 99575, "BSTAR": 0.00019104, "MEAN_MOTION_DOT": 7.15e-06, "MEAN_MOTION_DDOT": 0}, "tle": {"line1": "1 30221U 99025WE  25358.80911302  .00000715  00000+0  19104-3 0  9990", "line2": "2 30221  98.9555  87.1466 0144812   5.4498 354.8227 14.45832645995751"}}, "geometry": {"type": "Point", "coordinates": [78.15072389718223, 45.915747267339704]}}, {"type": "Feature", "properties": {"norad_id": 30222, "name": "FENGYUN 1C DEB", "group": "fengyun-1c-debris", "lat": -42.841683899956934, "lon": 40.510215364432334, "alt_km": 867.3957162006755, "timestamp": "2025-12-25T03:55:56.632667+00:00", "meta": {"OBJECT_NAME": "FENGYUN 1C DEB", "OBJECT_ID": "1999-025WF", "EPOCH": "2025-12-24T20:24:35.811936", "MEAN_MOTION": 14.040786, "ECCENTRICITY": 0.0037274, "INCLINATION": 98.84, "RA_OF_ASC_NODE": 31.9076, "ARG_OF_PERICENTER": 3.3699, "MEAN_ANOMALY": 170.1015, "EPHEMERIS_TYPE": 0, "CLASSIFICATION_TYPE": "U", "NORAD_CAT_ID": 30222, "ELEMENT_SET_NO": 999, "REV_AT_EPOCH": 97008, "BSTAR": 0.00025037, "MEAN_MOTION_DOT": 3.56e-06, "MEAN_MOTION_DDOT": 0}, "tle": {"line1": "1 30222U 99025WF  25358.85041449  .00000356  00000+0  25037-3 0  9995", "line2": "2 30222  98.8400  31.9076 0037274   3.3699 170.1015 14.04078600970088"}}, "geometry": {"type": "Point", "coordinates": [40.510215364432334, -42.841683899956934]}}]}